[{"OBJECT_NAME":"DUPLEX","OBJECT_ID":"1998-067XS","EPOCH":"2026-04-01T02:46:01.589952","MEAN_MOTION":15.57724655,"ECCENTRICITY":0.0003067,"INCLINATION":51.6289,"RA_OF_ASC_NODE":317.1598,"ARG_OF_PERICENTER":216.2059,"MEAN_ANOMALY":143.8726,"EPHEMERIS_TYPE":0,"CLASSIFICATION_TYPE":"U","NORAD_CAT_ID":66906,"ELEMENT_SET_NO":999,"REV_AT_EPOCH":1862,"BSTAR":0.00045047,"MEAN_MOTION_DOT":0.00033711,"MEAN_MOTION_DDOT":0},{"OBJECT_NAME":"ISS OBJECT XT","OBJECT_ID":"1998-067XT","EPOCH":"2026-04-01T00:07:54.595200","MEAN_MOTION":15.7798276,"ECCENTRICITY":0.0006663,"INCLINATION":51.6228,"RA_OF_ASC_NODE":311.1343,"ARG_OF_PERICENTER":226.0366,"MEAN_ANOMALY":134.0085,"EPHEMERIS_TYPE":0,"CLASSIFICATION_TYPE":"U","NORAD_CAT_ID":66907,"ELEMENT_SET_NO":999,"REV_AT_EPOCH":1869,"BSTAR":0.0014153,"MEAN_MOTION_DOT":0.00252342,"MEAN_MOTION_DDOT":0},{"OBJECT_NAME":"ISS OBJECT XU","OBJECT_ID":"1998-067XU","EPOCH":"2026-04-01T00:01:40.719936","MEAN_MOTION":15.78272322,"ECCENTRICITY":0.000692,"INCLINATION":51.6232,"RA_OF_ASC_NODE":311.1009,"ARG_OF_PERICENTER":225.5179,"MEAN_ANOMALY":134.5256,"EPHEMERIS_TYPE":0,"CLASSIFICATION_TYPE":"U","NORAD_CAT_ID":66908,"ELEMENT_SET_NO":999,"REV_AT_EPOCH":1869,"BSTAR":0.0014515,"MEAN_MOTION_DOT":0.00262522,"MEAN_MOTION_DDOT":0},{"OBJECT_NAME":"SILVERSAT","OBJECT_ID":"1998-067XV","EPOCH":"2026-04-01T00:09:49.991040","MEAN_MOTION":15.84315758,"ECCENTRICITY":0.0008026,"INCLINATION":51.6192,"RA_OF_ASC_NODE":309.6226,"ARG_OF_PERICENTER":232.8926,"MEAN_ANOMALY":127.1344,"EPHEMERIS_TYPE":0,"CLASSIFICATION_TYPE":"U","NORAD_CAT_ID":66909,"ELEMENT_SET_NO":999,"REV_AT_EPOCH":1871,"BSTAR":0.0015922,"MEAN_MOTION_DOT":0.00386729,"MEAN_MOTION_DDOT":0},{"OBJECT_NAME":"ISS OBJECT XW","OBJECT_ID":"1998-067XW","EPOCH":"2026-03-31T21:20:08.184768","MEAN_MOTION":15.76237796,"ECCENTRICITY":0.00068822,"INCLINATION":51.6213,"RA_OF_ASC_NODE":311.8494,"ARG_OF_PERICENTER":221.1915,"MEAN_ANOMALY":138.8566,"EPHEMERIS_TYPE":0,"CLASSIFICATION_TYPE":"U","NORAD_CAT_ID":66910,"ELEMENT_SET_NO":999,"REV_AT_EPOCH":1867,"BSTAR":0.0012590626,"MEAN_MOTION_DOT":0.00206554,"MEAN_MOTION_DDOT":0},{"OBJECT_NAME":"ISS OBJECT XX","OBJECT_ID":"1998-067XX","EPOCH":"2026-03-31T20:54:36.817344","MEAN_MOTION":15.92173368,"ECCENTRICITY":0.00099555,"INCLINATION":51.6169,"RA_OF_ASC_NODE":308.6766,"ARG_OF_PERICENTER":236.6927,"MEAN_ANOMALY":123.3127,"EPHEMERIS_TYPE":0,"CLASSIFICATION_TYPE":"U","NORAD_CAT_ID":66911,"ELEMENT_SET_NO":999,"REV_AT_EPOCH":1870,"BSTAR":0.0017626962,"MEAN_MOTION_DOT":0.0060442,"MEAN_MOTION_DDOT":0.00015627483},{"OBJECT_NAME":"ISS OBJECT XY","OBJECT_ID":"1998-067XY","EPOCH":"2026-03-31T23:33:14.804640","MEAN_MOTION":15.68405535,"ECCENTRICITY":0.0004673,"INCLINATION":51.6257,"RA_OF_ASC_NODE":314.0012,"ARG_OF_PERICENTER":219.6211,"MEAN_ANOMALY":140.4444,"EPHEMERIS_TYPE":0,"CLASSIFICATION_TYPE":"U","NORAD_CAT_ID":66912,"ELEMENT_SET_NO":999,"REV_AT_EPOCH":1864,"BSTAR":0.0010957,"MEAN_MOTION_DOT":0.00127422,"MEAN_MOTION_DDOT":0},{"OBJECT_NAME":"KNACKSAT-2","OBJECT_ID":"1998-067XZ","EPOCH":"2026-03-31T23:54:00.274464","MEAN_MOTION":15.53721795,"ECCENTRICITY":0.001024,"INCLINATION":51.6314,"RA_OF_ASC_NODE":320.8633,"ARG_OF_PERICENTER":267.3943,"MEAN_ANOMALY":92.5875,"EPHEMERIS_TYPE":0,"CLASSIFICATION_TYPE":"U","NORAD_CAT_ID":67683,"ELEMENT_SET_NO":999,"REV_AT_EPOCH":825,"BSTAR":0.00070857,"MEAN_MOTION_DOT":0.00046098,"MEAN_MOTION_DDOT":0},{"OBJECT_NAME":"CORAL","OBJECT_ID":"1998-067YA","EPOCH":"2026-04-01T01:08:22.495776","MEAN_MOTION":15.58243212,"ECCENTRICITY":0.0013201,"INCLINATION":51.6293,"RA_OF_ASC_NODE":319.7077,"ARG_OF_PERICENTER":257.1133,"MEAN_ANOMALY":102.8385,"EPHEMERIS_TYPE":0,"CLASSIFICATION_TYPE":"U","NORAD_CAT_ID":67684,"ELEMENT_SET_NO":999,"REV_AT_EPOCH":827,"BSTAR":0.0013811,"MEAN_MOTION_DOT":0.0010783,"MEAN_MOTION_DDOT":0},{"OBJECT_NAME":"GXIBA-1","OBJECT_ID":"1998-067YB","EPOCH":"2026-04-01T01:10:32.563200","MEAN_MOTION":15.54306639,"ECCENTRICITY":0.0012232,"INCLINATION":51.6319,"RA_OF_ASC_NODE":320.468,"ARG_OF_PERICENTER":264.188,"MEAN_ANOMALY":95.7716,"EPHEMERIS_TYPE":0,"CLASSIFICATION_TYPE":"U","NORAD_CAT_ID":67685,"ELEMENT_SET_NO":999,"REV_AT_EPOCH":826,"BSTAR":0.0008448,"MEAN_MOTION_DOT":0.00056374,"MEAN_MOTION_DDOT":0},{"OBJECT_NAME":"UITMSAT-2","OBJECT_ID":"1998-067YC","EPOCH":"2026-04-01T00:46:33.222144","MEAN_MOTION":15.55338997,"ECCENTRICITY":0.0009322,"INCLINATION":51.6314,"RA_OF_ASC_NODE":320.3591,"ARG_OF_PERICENTER":237.1849,"MEAN_ANOMALY":122.8245,"EPHEMERIS_TYPE":0,"CLASSIFICATION_TYPE":"U","NORAD_CAT_ID":67686,"ELEMENT_SET_NO":999,"REV_AT_EPOCH":826,"BSTAR":0.00098495,"MEAN_MOTION_DOT":0.00068374,"MEAN_MOTION_DDOT":0},{"OBJECT_NAME":"HMU-SAT2","OBJECT_ID":"1998-067YD","EPOCH":"2026-04-01T01:18:24.324480","MEAN_MOTION":15.54047258,"ECCENTRICITY":0.0008863,"INCLINATION":51.6315,"RA_OF_ASC_NODE":320.5076,"ARG_OF_PERICENTER":239.8027,"MEAN_ANOMALY":120.2086,"EPHEMERIS_TYPE":0,"CLASSIFICATION_TYPE":"U","NORAD_CAT_ID":67687,"ELEMENT_SET_NO":999,"REV_AT_EPOCH":818,"BSTAR":0.00084138,"MEAN_MOTION_DOT":0.00055523,"MEAN_MOTION_DDOT":0},{"OBJECT_NAME":"LEOPARD","OBJECT_ID":"1998-067YE","EPOCH":"2026-04-01T00:57:29.507040","MEAN_MOTION":15.54869785,"ECCENTRICITY":0.0009081,"INCLINATION":51.6313,"RA_OF_ASC_NODE":320.4106,"ARG_OF_PERICENTER":237.4781,"MEAN_ANOMALY":122.5333,"EPHEMERIS_TYPE":0,"CLASSIFICATION_TYPE":"U","NORAD_CAT_ID":67688,"ELEMENT_SET_NO":999,"REV_AT_EPOCH":818,"BSTAR":0.00092981,"MEAN_MOTION_DOT":0.00063364,"MEAN_MOTION_DDOT":0},{"OBJECT_NAME":"CREW DRAGON 12","OBJECT_ID":"2026-031A","EPOCH":"2026-04-01T10:10:04.736352","MEAN_MOTION":15.48695066,"ECCENTRICITY":0.0006221,"INCLINATION":51.6332,"RA_OF_ASC_NODE":319.9685,"ARG_OF_PERICENTER":259.379,"MEAN_ANOMALY":100.6498,"EPHEMERIS_TYPE":0,"CLASSIFICATION_TYPE":"U","NORAD_CAT_ID":67796,"ELEMENT_SET_NO":999,"REV_AT_EPOCH":55982,"BSTAR":0.00015247,"MEAN_MOTION_DOT":7.873e-5,"MEAN_MOTION_DDOT":0},{"OBJECT_NAME":"PROGRESS-MS 33","OBJECT_ID":"2026-058A","EPOCH":"2026-04-01T10:10:04.736352","MEAN_MOTION":15.48695066,"ECCENTRICITY":0.0006221,"INCLINATION":51.6332,"RA_OF_ASC_NODE":319.9685,"ARG_OF_PERICENTER":259.379,"MEAN_ANOMALY":100.6498,"EPHEMERIS_TYPE":0,"CLASSIFICATION_TYPE":"U","NORAD_CAT_ID":68319,"ELEMENT_SET_NO":999,"REV_AT_EPOCH":133,"BSTAR":0.00015247,"MEAN_MOTION_DOT":7.873e-5,"MEAN_MOTION_DDOT":0}]
