DUPLEX                  
1 66906U 98067XS  26091.11529618  .00033711  00000+0  45047-3 0  9995
2 66906  51.6289 317.1598 0003067 216.2059 143.8726 15.57724655 18620
ISS OBJECT XT           
1 66907U 98067XT  26091.00549300  .00252342  00000+0  14153-2 0  9990
2 66907  51.6228 311.1343 0006663 226.0366 134.0085 15.77982760 18693
ISS OBJECT XU           
1 66908U 98067XU  26091.00116574  .00262522  00000+0  14515-2 0  9997
2 66908  51.6232 311.1009 0006920 225.5179 134.5256 15.78272322 18692
SILVERSAT               
1 66909U 98067XV  26091.00682860  .00386729  00000+0  15922-2 0  9993
2 66909  51.6192 309.6226 0008026 232.8926 127.1344 15.84315758 18718
ISS OBJECT XW           
1 66910U 98067XW  26090.88898362  .00206554  00000+0  12591-2 0  9992
2 66910  51.6213 311.8494 0006882 221.1915 138.8566 15.76237796 18679
ISS OBJECT XX           
1 66911U 98067XX  26090.87125946  .00604420  15627-3  17627-2 0  9997
2 66911  51.6169 308.6766 0009955 236.6927 123.3127 15.92173368 18702
ISS OBJECT XY           
1 66912U 98067XY  26090.98142135  .00127422  00000+0  10957-2 0  9995
2 66912  51.6257 314.0012 0004673 219.6211 140.4444 15.68405535 18647
KNACKSAT-2              
1 67683U 98067XZ  26090.99583651  .00046098  00000+0  70857-3 0  9999
2 67683  51.6314 320.8633 0010240 267.3943  92.5875 15.53721795  8254
CORAL                   
1 67684U 98067YA  26091.04748259  .00107830  00000+0  13811-2 0  9992
2 67684  51.6293 319.7077 0013201 257.1133 102.8385 15.58243212  8279
GXIBA-1                 
1 67685U 98067YB  26091.04898800  .00056374  00000+0  84480-3 0  9998
2 67685  51.6319 320.4680 0012232 264.1880  95.7716 15.54306639  8264
UITMSAT-2               
1 67686U 98067YC  26091.03232896  .00068374  00000+0  98495-3 0  9999
2 67686  51.6314 320.3591 0009322 237.1849 122.8245 15.55338997  8263
HMU-SAT2                
1 67687U 98067YD  26091.05444820  .00055523  00000+0  84138-3 0  9995
2 67687  51.6315 320.5076 0008863 239.8027 120.2086 15.54047258  8183
LEOPARD                 
1 67688U 98067YE  26091.03992485  .00063364  00000+0  92981-3 0  9996
2 67688  51.6313 320.4106 0009081 237.4781 122.5333 15.54869785  8186
CREW DRAGON 12          
1 67796U 26031A   26091.42366593  .00007873  00000+0  15247-3 0  9999
2 67796  51.6332 319.9685 0006221 259.3790 100.6498 15.48695066559821
PROGRESS-MS 33          
1 68319U 26058A   26091.42366593  .00007873  00000+0  15247-3 0  9990
2 68319  51.6332 319.9685 0006221 259.3790 100.6498 15.48695066  1331
